CTC1_L_00637007-03
1 21760U 23220BI  26070.40841435  .00000000  00000+0  00000-0 0  9998
2 21760  70.0000 180.0000 0000000   0.0000 144.0000  3.95927803    10
CTC1_L_00637007-04
1 21761U 22469GU  26070.40841435  .00000000  00000+0  00000-0 0  9993
2 21761  70.0000 180.0000 0000000   0.0000 180.0000  3.95927803    11
CTC1_L_00637007-05
1 21762U 26977GJ  26070.40841435  .00000000  00000+0  00000-0 0  9992
2 21762  70.0000 180.0000 0000000   0.0000 216.0000  3.95927803    12
CTC1_L_00637007-06
1 21763U 26312AP  26070.40841435  .00000000  00000+0  00000-0 0  9996
2 21763  70.0000 180.0000 0000000   0.0000 252.0000  3.95927803    13
CTC1_L_00637007-07
1 21764U 24926HF  26070.40841435  .00000000  00000+0  00000-0 0  9996
2 21764  70.0000 180.0000 0000000   0.0000 288.0000  3.95927803    13
CTC1_L_00637007-08
1 21765U 25283CK  26070.40841435  .00000000  00000+0  00000-0 0  9994
2 21765  70.0000 180.0000 0000000   0.0000 324.0000  3.95927803    15
CTC1_L_00637007-09
1 21766U 23248XS  26070.40841435  .00000000  00000+0  00000-0 0  9994
2 21766  70.0000 180.0000 0000000   0.0000   0.0000  3.95927803    17
CTC1_L_00637007-10
1 21767U 25277YD  26070.40841435  .00000000  00000+0  00000-0 0  9999
2 21767  70.0000 180.0000 0000000   0.0000  36.0000  3.95927803    17
CTC1_L_00637008-01
1 21768U 22323VD  26070.40841435  .00000000  00000+0  00000-0 0  9999
2 21768  70.0000 210.0000 0000000   0.0000  84.0000  3.95927803    15
CTC1_L_00637008-02
1 21769U 24993VS  26070.40841435  .00000000  00000+0  00000-0 0  9995
2 21769  70.0000 210.0000 0000000   0.0000 120.0000  3.95927803    17
CTC1_L_00637008-03
1 21770U 22853PU  26070.40841435  .00000000  00000+0  00000-0 0  9990
2 21770  70.0000 210.0000 0000000   0.0000 156.0000  3.95927803    18
CTC1_L_00637008-04
1 21771U 26202XH  26070.40841435  .00000000  00000+0  00000-0 0  9993
2 21771  70.0000 210.0000 0000000   0.0000 192.0000  3.95927803    19
CTC1_L_00637008-05
1 21772U 26717RT  26070.40841435  .00000000  00000+0  00000-0 0  9995
2 21772  70.0000 210.0000 0000000   0.0000 228.0000  3.95927803    10
CTC1_L_00637008-06
1 21773U 23903OG  26070.40841435  .00000000  00000+0  00000-0 0  9990
2 21773  70.0000 210.0000 0000000   0.0000 264.0000  3.95927803    11
CTC1_L_00637008-07
1 21774U 26071WK  26070.40841435  .00000000  00000+0  00000-0 0  9990
2 21774  70.0000 210.0000 0000000   0.0000 300.0000  3.95927803    13
CTC1_L_00637008-08
1 21775U 24890JQ  26070.40841435  .00000000  00000+0  00000-0 0  9998
2 21775  70.0000 210.0000 0000000   0.0000 336.0000  3.95927803    13
CTC1_L_00637008-09
1 21776U 22391OX  26070.40841435  .00000000  00000+0  00000-0 0  9993
2 21776  70.0000 210.0000 0000000   0.0000  12.0000  3.95927803    15
CTC1_L_00637008-10
1 21777U 24598FM  26070.40841435  .00000000  00000+0  00000-0 0  9995
2 21777  70.0000 210.0000 0000000   0.0000  48.0000  3.95927803    15
CTC1_L_00637009-01
1 21778U 26052LH  26070.40841435  .00000000  00000+0  00000-0 0  9993
2 21778  70.0000 240.0000 0000000   0.0000  96.0000  3.95927803    12
CTC1_L_00637009-02
1 21779U 23222OT  26070.40841435  .00000000  00000+0  00000-0 0  9990
2 21779  70.0000 240.0000 0000000   0.0000 132.0000  3.95927803    14
CTC1_L_00637009-03
1 21780U 23607LF  26070.40841435  .00000000  00000+0  00000-0 0  9999
2 21780  70.0000 240.0000 0000000   0.0000 168.0000  3.95927803    15
CTC1_L_00637009-04
1 21781U 25121ZW  26070.40841435  .00000000  00000+0  00000-0 0  9993
2 21781  70.0000 240.0000 0000000   0.0000 204.0000  3.95927803    17
CTC1_L_00637009-05
1 21782U 25173KN  26070.40841435  .00000000  00000+0  00000-0 0  9991
2 21782  70.0000 240.0000 0000000   0.0000 240.0000  3.95927803    18
CTC1_L_00637009-06
1 21783U 23424KA  26070.40841435  .00000000  00000+0  00000-0 0  9999
2 21783  70.0000 240.0000 0000000   0.0000 276.0000  3.95927803    18
CTC1_L_00637009-07
1 21784U 25711PV  26070.40841435  .00000000  00000+0  00000-0 0  9991
2 21784  70.0000 240.0000 0000000   0.0000 312.0000  3.95927803    10
CTC1_L_00637009-08
1 21785U 24840Q   26070.40841435  .00000000  00000+0  00000-0 0  9994
2 21785  70.0000 240.0000 0000000   0.0000 348.0000  3.95927803    10
CTC1_L_00637009-09
1 21786U 22314UH  26070.40841435  .00000000  00000+0  00000-0 0  9999
2 21786  70.0000 240.0000 0000000   0.0000  24.0000  3.95927803    12
CTC1_L_00637009-10
1 21787U 23525BY  26070.40841435  .00000000  00000+0  00000-0 0  9995
2 21787  70.0000 240.0000 0000000   0.0000  60.0000  3.95927803    13
CTC1_L_00637010-01
1 21788U 26470VB  26070.40841435  .00000000  00000+0  00000-0 0  9998
2 21788  70.0000 270.0000 0000000   0.0000 108.0000  3.95927803    10
CTC1_L_00637010-02
1 21789U 23494UL  26070.40841435  .00000000  00000+0  00000-0 0  9992
2 21789  70.0000 270.0000 0000000   0.0000 144.0000  3.95927803    11
CTC1_L_00637010-03
1 21790U 23309OW  26070.40841435  .00000000  00000+0  00000-0 0  9999
2 21790  70.0000 270.0000 0000000   0.0000 180.0000  3.95927803    13
CTC1_L_00637010-04
1 21791U 25946ZA  26070.40841435  .00000000  00000+0  00000-0 0  9999
2 21791  70.0000 270.0000 0000000   0.0000 216.0000  3.95927803    14
CTC1_L_00637010-05
1 21792U 24045NN  26070.40841435  .00000000  00000+0  00000-0 0  9999
2 21792  70.0000 270.0000 0000000   0.0000 252.0000  3.95927803    15
CTC1_L_00637010-06
1 21793U 22894KK  26070.40841435  .00000000  00000+0  00000-0 0  9990
2 21793  70.0000 270.0000 0000000   0.0000 288.0000  3.95927803    15
CTC1_L_00637010-07
1 21794U 22150TU  26070.40841435  .00000000  00000+0  00000-0 0  9996
2 21794  70.0000 270.0000 0000000   0.0000 324.0000  3.95927803    17
CTC1_L_00637010-08
1 21795U 24949AJ  26070.40841435  .00000000  00000+0  00000-0 0  9995
2 21795  70.0000 270.0000 0000000   0.0000   0.0000  3.95927803    19
CTC1_L_00637010-09
1 21796U 26467BM  26070.40841435  .00000000  00000+0  00000-0 0  9993
2 21796  70.0000 270.0000 0000000   0.0000  36.0000  3.95927803    19
CTC1_L_00637010-10
1 21797U 24424VT  26070.40841435  .00000000  00000+0  00000-0 0  9995
2 21797  70.0000 270.0000 0000000   0.0000  72.0000  3.95927803    10
CTC1_L_00637011-01
1 21798U 26657RW  26070.40841435  .00000000  00000+0  00000-0 0  9996
2 21798  70.0000 300.0000 0000000   0.0000 120.0000  3.95927803    19
CTC1_L_00637011-02
1 21799U 26329GF  26070.40841435  .00000000  00000+0  00000-0 0  9993
2 21799  70.0000 300.0000 0000000   0.0000 156.0000  3.95927803    19
CTC1_L_00637011-03
1 21800U 22691TC  26070.40841435  .00000000  00000+0  00000-0 0  9994
2 21800  70.0000 300.0000 0000000   0.0000 192.0000  3.95927803    12
CTC1_L_00637011-04
1 21801U 24226HJ  26070.40841435  .00000000  00000+0  00000-0 0  9991
2 21801  70.0000 300.0000 0000000   0.0000 228.0000  3.95927803    13
CTC1_L_00637011-05
1 21802U 23139G   26070.40841435  .00000000  00000+0  00000-0 0  9994
2 21802  70.0000 300.0000 0000000   0.0000 264.0000  3.95927803    14
CTC1_L_00637011-06
1 21803U 24157XR  26070.40841435  .00000000  00000+0  00000-0 0  9996
2 21803  70.0000 300.0000 0000000   0.0000 300.0000  3.95927803    16
CTC1_L_00637011-07
1 21804U 24259FO  26070.40841435  .00000000  00000+0  00000-0 0  9990
2 21804  70.0000 300.0000 0000000   0.0000 336.0000  3.95927803    16
CTC1_L_00637011-08
1 21805U 25868FV  26070.40841435  .00000000  00000+0  00000-0 0  9998
2 21805  70.0000 300.0000 0000000   0.0000  12.0000  3.95927803    18
CTC1_L_00637011-09
1 21806U 24585ZU  26070.40841435  .00000000  00000+0  00000-0 0  9994
2 21806  70.0000 300.0000 0000000   0.0000  48.0000  3.95927803    18
CTC1_L_00637011-10
1 21807U 22815VB  26070.40841435  .00000000  00000+0  00000-0 0  9999
2 21807  70.0000 300.0000 0000000   0.0000  84.0000  3.95927803    19
CTC1_L_00637012-01
1 21808U 25636EM  26070.40841435  .00000000  00000+0  00000-0 0  9994
2 21808  70.0000 330.0000 0000000   0.0000 132.0000  3.95927803    17
CTC1_L_00637012-02
1 21809U 23062NA  26070.40841435  .00000000  00000+0  00000-0 0  9996
2 21809  70.0000 330.0000 0000000   0.0000 168.0000  3.95927803    17
CTC1_L_00637012-03
1 21810U 24891BJ  26070.40841435  .00000000  00000+0  00000-0 0  9999
2 21810  70.0000 330.0000 0000000   0.0000 204.0000  3.95927803    10
CTC1_L_00637012-04
1 21811U 22443OV  26070.40841435  .00000000  00000+0  00000-0 0  9991
2 21811  70.0000 330.0000 0000000   0.0000 240.0000  3.95927803    11
CTC1_L_00637012-05
1 21812U 22680TS  26070.40841435  .00000000  00000+0  00000-0 0  9995
2 21812  70.0000 330.0000 0000000   0.0000 276.0000  3.95927803    11
CTC1_L_00637012-06
1 21813U 24394OC  26070.40841435  .00000000  00000+0  00000-0 0  9990
2 21813  70.0000 330.0000 0000000   0.0000 312.0000  3.95927803    13
CTC1_L_00637012-07
1 21814U 22091OM  26070.40841435  .00000000  00000+0  00000-0 0  9993
2 21814  70.0000 330.0000 0000000   0.0000 348.0000  3.95927803    13
CTC1_L_00637012-08
1 21815U 24741LL  26070.40841435  .00000000  00000+0  00000-0 0  9998
2 21815  70.0000 330.0000 0000000   0.0000  24.0000  3.95927803    15
CTC1_L_00637012-09
1 21816U 22526AL  26070.40841435  .00000000  00000+0  00000-0 0  9998
2 21816  70.0000 330.0000 0000000   0.0000  60.0000  3.95927803    16
CTC1_L_00637012-10
1 21817U 24970QW  26070.40841435  .00000000  00000+0  00000-0 0  9994
2 21817  70.0000 330.0000 0000000   0.0000  96.0000  3.95927803    16
